IRIDIUM 155             
1 43573U 18061E   23190.37359250  .00000030  00000+0  37840-5 0  9996
2 43573  86.3991 145.4922 0002120  84.0259 276.1179 14.34217574259456
IRIDIUM 154             
1 43574U 18061F   23189.79640393  .00000330  00000+0  11083-3 0  9994
2 43574  86.3995 145.8144 0002541  82.5990 277.5495 14.34222484259411
IRIDIUM 163             
1 43575U 18061G   23190.12623616  .00000320  00000+0  10728-3 0  9997
2 43575  86.3994 145.6254 0002432  86.2799 273.8675 14.34218251259436
IRIDIUM 156             
1 43576U 18061H   23190.37994521  .00000318  00000+0  10665-3 0  9998
2 43576  86.3993 145.5253 0002099  90.8298 269.3139 14.34217603259455
IRIDIUM 164             
1 43577U 18061J   23189.80276711  .00000331  00000+0  11122-3 0  9993
2 43577  86.3994 145.7901 0002454  89.0995 271.0482 14.34218259259424
IRIDIUM 159             
1 43578U 18061K   23190.39896517  .00000031  00000+0  38701-5 0  9993
2 43578  86.3993 145.5008 0002364  83.6913 276.4552 14.34217340259472
IRIDIUM 180             
1 43922U 19002A   23190.39845994  .00000275  00000+0  91222-4 0  9991
2 43922  86.3954  82.3802 0002407  85.4115 274.7355 14.34217571235128
IRIDIUM 176             
1 43923U 19002B   23190.40514674  .00000981  00000+0  15160-3 0  9992
2 43923  86.6087  82.4155 0002415  88.5033 271.6461 14.72262640241268
IRIDIUM 168             
1 43924U 19002C   23190.11303714  .00000284  00000+0  94500-4 0  9994
2 43924  86.3959  82.5464 0002334  83.0067 277.1395 14.34215248235029
IRIDIUM 173             
1 43925U 19002D   23189.75151445  .00000300  00000+0  10011-3 0  9998
2 43925  86.3956  82.6305 0002360  81.9488 278.1976 14.34218851234966
IRIDIUM 169             
1 43926U 19002E   23189.82422235  .00000423  00000+0  13166-3 0  9995
2 43926  86.4232 114.2224 0001572 313.4394  46.6673 14.38617372235766
IRIDIUM 172             
1 43927U 19002F   23189.74517474  .00000313  00000+0  10457-3 0  9995
2 43927  86.3955  82.6379 0002263  82.6389 277.5064 14.34216974234963
IRIDIUM 175             
1 43928U 19002G   23190.12697052  .00000180  00000+0  24523-4 0  9993
2 43928  86.1500  75.1111 0002431  85.5292 274.6202 14.72251715241213
IRIDIUM 171             
1 43929U 19002H   23190.42384292  .00000222  00000+0  72037-4 0  9996
2 43929  86.3966  82.5413 0002382  84.3768 275.7699 14.34218879235058
IRIDIUM 170             
1 43930U 19002J   23189.73163004  .00001018  00000+0  15746-3 0  9993
2 43930  86.6088  82.7020 0002554  90.6684 269.4825 14.72264633241174
IRIDIUM 167             
1 43931U 19002K   23190.41748663  .00000278  00000+0  92264-4 0  9999
2 43931  86.3956  82.3696 0002378  85.6167 274.5300 14.34218683235052
IRIDIUM 181             
1 56726U 23068S   23190.47642881  .00001422  00000+0  18358-3 0  9996
2 56726  86.6777 119.6225 0003191  88.0613 272.0974 14.80250751  7534
IRIDIUM 177             
1 56727U 23068T   23190.06533166  .00001591  00000+0  20589-3 0  9993
2 56727  86.1988 118.7500 0003268  94.1756 265.9838 14.80233880  7478
IRIDIUM 174             
1 56728U 23068U   23190.33035346  .00001560  00000+0  20180-3 0  9994
2 56728  86.1995 118.7000 0002889  91.6534 268.5018 14.80236806  7511
IRIDIUM 178             
1 56729U 23068V   23189.78416643  .00001526  00000+0  19730-3 0  9996
2 56729  86.6765 119.8863 0002910  93.1578 266.9976 14.80242476  7437
IRIDIUM 179             
1 56730U 23068W   23190.31952504  .00001500  00000+0  19402-3 0  9998
2 56730  86.6805 119.6837 0002953  94.3526 265.8033 14.80227413  7511
